SENTINEL-6              
1 46984U 20086A   24246.60489275 -.00000053  00000+0  35123-4 0  9992
2 46984  66.0418  50.4716 0007765 269.3700  90.6425 12.80931303176744
